{
  "type": "FeatureCollection",
  "features": [
    {
      "type": "Feature",
      "properties": {
        "norad_id": 66580,
        "name": "STARLINK-35872",
        "group": "last-30-days",
        "lat": -40.77956546975516,
        "lon": 69.1227798243963,
        "alt_km": 343.01233477365986,
        "timestamp": "2025-12-02T13:52:16.066179+00:00",
        "meta_object_name": "STARLINK-35872",
        "meta_object_id": "2025-268Z",
        "meta_epoch": "2025-12-02T06:00:02.999808",
        "meta_mean_motion": 15.77611757,
        "meta_eccentricity": 0.0001461,
        "meta_inclination": 42.9974,
        "meta_ra_of_asc_node": 183.3386,
        "meta_arg_of_pericenter": 261.7291,
        "meta_mean_anomaly": 287.6821,
        "meta_ephemeris_type": 0,
        "meta_classification_type": "U",
        "meta_norad_cat_id": 66580,
        "meta_element_set_no": 999,
        "meta_rev_at_epoch": 298,
        "meta_bstar": -0.012238644,
        "meta_mean_motion_dot": -0.0184313,
        "meta_mean_motion_ddot": 0,
        "tle_line1": "1 66580U 25268Z   25336.25003472 -.01843130  00000+0 -12239-1 0  9999",
        "tle_line2": "2 66580  42.9974 183.3386 0001461 261.7291 287.6821 15.77611757  2984"
      },
      "geometry": {
        "type": "Point",
        "coordinates": [
          69.1227798243963,
          -40.77956546975516
        ]
      }
    },
    {
      "type": "Feature",
      "properties": {
        "norad_id": 66581,
        "name": "STARLINK-35744",
        "group": "last-30-days",
        "lat": -41.25001558307272,
        "lon": 71.59344645351057,
        "alt_km": 343.0034288585539,
        "timestamp": "2025-12-02T13:52:16.066189+00:00",
        "meta_object_name": "STARLINK-35744",
        "meta_object_id": "2025-268AA",
        "meta_epoch": "2025-12-02T06:00:02.999808",
        "meta_mean_motion": 15.7761704,
        "meta_eccentricity": 0.00015648,
        "meta_inclination": 42.9976,
        "meta_ra_of_asc_node": 183.3334,
        "meta_arg_of_pericenter": 272.4032,
        "meta_mean_anomaly": 278.9355,
        "meta_ephemeris_type": 0,
        "meta_classification_type": "U",
        "meta_norad_cat_id": 66581,
        "meta_element_set_no": 999,
        "meta_rev_at_epoch": 293,
        "meta_bstar": -0.012242232,
        "meta_mean_motion_dot": -0.01844078,
        "meta_mean_motion_ddot": 0,
        "tle_line1": "1 66581U 25268AA  25336.25003472 -.01844078  00000+0 -12242-1 0  9996",
        "tle_line2": "2 66581  42.9976 183.3334 0001564 272.4032 278.9355 15.77617040  2937"
      },
      "geometry": {
        "type": "Point",
        "coordinates": [
          71.59344645351057,
          -41.25001558307272
        ]
      }
    },
    {
      "type": "Feature",
      "properties": {
        "norad_id": 66582,
        "name": "STARLINK-35746",
        "group": "last-30-days",
        "lat": -41.686563938356066,
        "lon": 74.22836310959946,
        "alt_km": 343.2674176371447,
        "timestamp": "2025-12-02T13:52:16.066199+00:00",
        "meta_object_name": "STARLINK-35746",
        "meta_object_id": "2025-268AB",
        "meta_epoch": "2025-12-02T06:00:02.999808",
        "meta_mean_motion": 15.77470067,
        "meta_eccentricity": 0.00014134,
        "meta_inclination": 42.9977,
        "meta_ra_of_asc_node": 183.3282,
        "meta_arg_of_pericenter": 275.2656,
        "meta_mean_anomaly": 278.2116,
        "meta_ephemeris_type": 0,
        "meta_classification_type": "U",
        "meta_norad_cat_id": 66582,
        "meta_element_set_no": 999,
        "meta_rev_at_epoch": 298,
        "meta_bstar": -0.011319323,
        "meta_mean_motion_dot": -0.01711352,
        "meta_mean_motion_ddot": 0,
        "tle_line1": "1 66582U 25268AB  25336.25003472 -.01711352  00000+0 -11319-1 0  9999",
        "tle_line2": "2 66582  42.9977 183.3282 0001413 275.2656 278.2116 15.77470067  2986"
      },
      "geometry": {
        "type": "Point",
        "coordinates": [
          74.22836310959946,
          -41.686563938356066
        ]
      }
    },
    {
      "type": "Feature",
      "properties": {
        "norad_id": 66583,
        "name": "STARLINK-35941",
        "group": "last-30-days",
        "lat": -42.05449636422975,
        "lon": 76.83880414620866,
        "alt_km": 343.4309062739094,
        "timestamp": "2025-12-02T13:52:16.066211+00:00",
        "meta_object_name": "STARLINK-35941",
        "meta_object_id": "2025-268AC",
        "meta_epoch": "2025-12-02T06:00:02.999808",
        "meta_mean_motion": 15.77440608,
        "meta_eccentricity": 0.00014643,
        "meta_inclination": 42.9978,
        "meta_ra_of_asc_node": 183.323,
        "meta_arg_of_pericenter": 269.5081,
        "meta_mean_anomaly": 286.02,
        "meta_ephemeris_type": 0,
        "meta_classification_type": "U",
        "meta_norad_cat_id": 66583,
        "meta_element_set_no": 999,
        "meta_rev_at_epoch": 298,
        "meta_bstar": -0.011858767,
        "meta_mean_motion_dot": -0.01780884,
        "meta_mean_motion_ddot": 0,
        "tle_line1": "1 66583U 25268AC  25336.25003472 -.01780884  00000+0 -11859-1 0  9995",
        "tle_line2": "2 66583  42.9978 183.3230 0001464 269.5081 286.0200 15.77440608  2984"
      },
      "geometry": {
        "type": "Point",
        "coordinates": [
          76.83880414620866,
          -42.05449636422975
        ]
      }
    },
    {
      "type": "Feature",
      "properties": {
        "norad_id": 66584,
        "name": "STARLINK-35939",
        "group": "last-30-days",
        "lat": -42.35696912737519,
        "lon": 79.42312053819946,
        "alt_km": 343.53579796734357,
        "timestamp": "2025-12-02T13:52:16.066221+00:00",
        "meta_object_name": "STARLINK-35939",
        "meta_object_id": "2025-268AD",
        "meta_epoch": "2025-12-02T06:00:02.999808",
        "meta_mean_motion": 15.7741943,
        "meta_eccentricity": 0.00014213,
        "meta_inclination": 42.9982,
        "meta_ra_of_asc_node": 183.3185,
        "meta_arg_of_pericenter": 268.5682,
        "meta_mean_anomaly": 288.9315,
        "meta_ephemeris_type": 0,
        "meta_classification_type": "U",
        "meta_norad_cat_id": 66584,
        "meta_element_set_no": 999,
        "meta_rev_at_epoch": 298,
        "meta_bstar": -0.011921832,
        "meta_mean_motion_dot": -0.01787648,
        "meta_mean_motion_ddot": 0,
        "tle_line1": "1 66584U 25268AD  25336.25003472 -.01787648  00000+0 -11922-1 0  9992",
        "tle_line2": "2 66584  42.9982 183.3185 0001421 268.5682 288.9315 15.77419430  2985"
      },
      "geometry": {
        "type": "Point",
        "coordinates": [
          79.42312053819946,
          -42.35696912737519
        ]
      }
    },
    {
      "type": "Feature",
      "properties": {
        "norad_id": 66585,
        "name": "STARLINK-35963",
        "group": "last-30-days",
        "lat": -42.60288224433024,
        "lon": 82.06629737823285,
        "alt_km": 343.6379339147343,
        "timestamp": "2025-12-02T13:52:16.066230+00:00",
        "meta_object_name": "STARLINK-35963",
        "meta_object_id": "2025-268AE",
        "meta_epoch": "2025-12-02T06:00:02.999808",
        "meta_mean_motion": 15.77369151,
        "meta_eccentricity": 0.00015122,
        "meta_inclination": 42.9978,
        "meta_ra_of_asc_node": 183.3134,
        "meta_arg_of_pericenter": 268.1854,
        "meta_mean_anomaly": 291.3487,
        "meta_ephemeris_type": 0,
        "meta_classification_type": "U",
        "meta_norad_cat_id": 66585,
        "meta_element_set_no": 999,
        "meta_rev_at_epoch": 298,
        "meta_bstar": -0.012012465,
        "meta_mean_motion_dot": -0.01796047,
        "meta_mean_motion_ddot": 0,
        "tle_line1": "1 66585U 25268AE  25336.25003472 -.01796047  00000+0 -12012-1 0  9997",
        "tle_line2": "2 66585  42.9978 183.3134 0001512 268.1854 291.3487 15.77369151  2985"
      },
      "geometry": {
        "type": "Point",
        "coordinates": [
          82.06629737823285,
          -42.60288224433024
        ]
      }
    },
    {
      "type": "Feature",
      "properties": {
        "norad_id": 66586,
        "name": "TJS-21",
        "group": "last-30-days",
        "lat": 24.760904124622378,
        "lon": -165.783710865095,
        "alt_km": 36077.56348264263,
        "timestamp": "2025-12-02T13:52:16.066246+00:00",
        "meta_object_name": "TJS-21",
        "meta_object_id": "2025-269A",
        "meta_epoch": "2025-11-22T00:38:56.616288",
        "meta_mean_motion": 2.0099221,
        "meta_eccentricity": 0.75179873,
        "meta_inclination": 51.0366,
        "meta_ra_of_asc_node": 174.7096,
        "meta_arg_of_pericenter": 225.0489,
        "meta_mean_anomaly": 41.6572,
        "meta_ephemeris_type": 0,
        "meta_classification_type": "U",
        "meta_norad_cat_id": 66586,
        "meta_element_set_no": 999,
        "meta_rev_at_epoch": 2,
        "meta_bstar": 0.00053569978,
        "meta_mean_motion_dot": 3.197e-05,
        "meta_mean_motion_ddot": 0,
        "tle_line1": "1 66586U 25269A   25326.02704417  .00003197  00000+0  53570-3 0  9990",
        "tle_line2": "2 66586  51.0366 174.7096 7517987 225.0489  41.6572  2.00992210    24"
      },
      "geometry": {
        "type": "Point",
        "coordinates": [
          -165.783710865095,
          24.760904124622378
        ]
      }
    }
  ]
}